INMARSAT 5-F2
1 40384U 15005A   26118.83610307  .00000000  00000+0  00000+0 0  9994
2 40384   0.0129 254.6292 0000686 108.9574  99.1952  1.00267743 40501
